ONEWEB-0234             
1 48783U 21045S   21179.83334491 -.01006881  00000-0 -54404-1 0  9991
2 48783  87.4284 265.6805 0010253 130.3452 283.7602 15.17635443  6054
ONEWEB-0238             
1 48784U 21045T   21179.50001157 -.00966034  00000-0 -49879-1 0  9990
2 48784  87.4389 265.7654 0011313 150.4168 143.2183 15.19074308  3611
ONEWEB-0240             
1 48785U 21045U   21179.50001157 -.00917435  00000-0 -47314-1 0  9994
2 48785  87.4358 265.7745 0007931 139.1970  17.9216 15.19022663  3728
ONEWEB-0246             
1 48786U 21045V   21179.83334491 -.01027252  00000-0 -70638-1 0  9996
2 48786  87.4112 265.7250 0008044 153.1611 237.9133 15.08680797  6037
ONEWEB-0210             
1 48787U 21045W   21179.50001157 -.00944683  00000-0 -56611-1 0  9991
2 48787  87.4250 265.8027 0011352 135.4676 176.7434 15.13804441  3631
ONEWEB-0214             
1 48788U 21045X   21179.83334491 -.01000643  00000-0 -69989-1 0  9990
2 48788  87.4096 265.7260 0008104 142.8929 176.4458 15.08452649  6035
ONEWEB-0221             
1 48789U 21045Y   21179.83334491 -.01010033  00000-0 -48950-1 0  9990
2 48789  87.4476 265.6267 0012580 126.6039   8.9696 15.21344661  6075
ONEWEB-0213             
1 48790U 21045Z   21179.83334491 -.01006528  00000-0 -50732-1 0  9997
2 48790  87.4425 265.6301 0012491 134.7794 288.2774 15.19997816  6072
ONEWEB-0212             
1 48791U 21045AA  21179.50001157 -.00947683  00000-0 -46166-1 0  9993
2 48791  87.4456 265.7534 0012500 134.1866 286.5873 15.20997232  3691
ONEWEB-0227             
1 48792U 21045AB  21179.50001157 -.00935102  00000-0 -53362-1 0  9993
2 48792  87.4512 265.8088 0010030 132.4904 269.2874 15.15522421  3721
ONEWEB-0226             
1 48793U 21045AC  21179.50001157 -.00975510  00000-0 -56730-1 0  9993
2 48793  87.4163 265.8129 0010600 154.4814   3.4737 15.14967272  3718
ONEWEB-0224             
1 48794U 21045AD  21179.50001157 -.01004782  00000-0 -72691-1 0  9993
2 48794  87.3945 265.8492 0009171 137.8755  73.1016 15.06746243  3650
ONEWEB-0233             
1 48795U 21045AE  21179.50001157 -.00971531  00000-0 -69586-1 0  9997
2 48795  87.4038 265.8526 0008504 143.1940 120.6082 15.07487907  3671
ONEWEB-0190             
1 48796U 21045AF  21179.50001157 -.00958882  00000-0 -55532-1 0  9998
2 48796  87.4170 265.8257 0010044 155.4701 343.8574 15.15072646  3734
ONEWEB-0236             
1 48797U 21045AG  21179.50001157 -.00978258  00000-0 -67692-1 0  9998
2 48797  87.4014 265.8246 0007706 152.0068 197.4171 15.08779991  3634
ONEWEB-0248             
1 48798U 21045AH  21179.50001157 -.00924634  00000-0 -41630-1 0  9992
2 48798  87.4296 265.7513 0010672 152.3409 153.3930 15.23627017  3633
ONEWEB-0225             
1 48799U 21045AJ  21179.83334491 -.00059106  00000-0 -25482-2 0  9990
2 48799  87.4271 265.6556 0008162 146.4595  77.2422 15.22870752  6069
ONEWEB-0215             
1 48800U 21045AK  21179.50001157 -.00972899  00000-0 -64856-1 0  9997
2 48800  87.4117 265.8231 0009211 157.6000 279.3076 15.10100484  3639
ONEWEB-0216             
1 48801U 21045AL  21179.50001157 -.00954905  00000-0 -63942-1 0  9991
2 48801  87.4414 265.8545 0008272 157.6431 254.4639 15.09894966  3634
ONEWEB-0239             
1 48802U 21045AM  21179.83334491 -.01018540  00000-0 -61139-1 0  9991
2 48802  87.4193 265.6942 0012208 148.1358  79.6469 15.13950015  6055
TIANZHOU-2              
1 48803U 21046A   21177.84869677  .00009593  00000-0  10788-3 0  9992
2 48803  41.4684 224.1669 0007605   4.0568 163.4582 15.62594601  9202
FENGYUN 4B              
1 48808U 21047A   21179.85284432 -.00000367  00000-0  00000+0 0  9994
2 48808   0.0541 226.9286 0000698 252.1229 228.8660  1.00272906   370
DRAGON CRS-22           
1 48831U 21048A   21179.59233343  .00001944  00000-0  43787-4 0  9992
2 48831  51.6454 286.3205 0002279 118.9439   5.7591 15.48743536290365
SXM-8                   
1 48838U 21049A   21179.55810147 -.00000001  00000-0  00000-0 0  9990
2 48838   0.0453 264.3434 0002171 164.2224 288.7358  1.00274112   428
2021-050A               
1 48840U 21050A   21179.79310589 -.00000073  00000-0  00000+0 0  9994
2 48840  97.5105 249.5231 0011639 206.2853 272.5315 15.23619152  2681
2021-050B               
1 48841U 21050B   21179.85598307 -.00000073  00000-0  00000+0 0  9998
2 48841  97.5125 249.5917 0011916 207.0843 264.5474 15.23740744  2680
2021-050C               
1 48842U 21050C   21179.79219839 -.00000073  00000-0  00000+0 0  9992
2 48842  97.5105 249.5241 0011357 207.9100 269.8108 15.23677877  2670
2021-050D               
1 48843U 21050D   21179.79621510 -.00000073  00000-0  00000+0 0  9996
2 48843  97.5108 249.5186 0011949 199.0409 276.6444 15.23291436  2685
ODYSSEY                 
1 48844U 21051A   21179.73024727  .00004897  00000-0  99189-4 0  9997
2 48844  97.4788  93.5818 0034921 235.7519 177.5607 15.46268842  2379
RAMSAT                  
1 48850U 98067SL  21179.56289448  .00006497  00000-0  12261-3 0  9992
2 48850  51.6423 286.3881 0004140 178.2135 181.8870 15.49787904  2234
SOAR                    
1 48851U 98067SM  21179.30370054  .00018967  00000-0  33843-3 0  9993
2 48851  51.6420 287.6569 0003568 178.2030 181.8972 15.50088269  2239
SHENZHOU-12             
1 48852U 21053A   21177.84869677  .00009593  00000-0  10788-3 0  9994
2 48852  41.4684 224.1669 0007605   4.0568 163.4582 15.62594601  9206
NAVSTAR 81 (USA 319)    
1 48859U 21054A   21178.18124428 -.00000087  00000-0  00000-0 0  9991
2 48859  54.9875  45.3805 0004489  91.4338 268.6751  2.00519746   337
2021-055A               
1 48860U 21055A   21179.65618226  .00000164  00000-0  21568-4 0  9992
2 48860  34.9955 278.0889 0010167 281.0678  78.8881 14.85572852  1538
2021-055B               
1 48861U 21055B   21179.64363916  .00000180  00000-0  21806-4 0  9998
2 48861  34.9953 277.9901 0005782 302.8725  57.1422 14.88484747  1508
2021-055C               
1 48862U 21055C   21179.69921385  .00000050  00000-0  96591-5 0  9994
2 48862  35.0728 278.5665 0077519 354.6544   5.3326 14.81147694  1526
COSMOS 2550             
1 48865U 21056A   21179.96508477  .01235644  00000-0  30889-1 0  9995
2 48865  67.1346 188.2775 0011689 100.2953 339.8299 15.37289994   496
